[{"OBJECT_NAME":"STARLINK-34202","OBJECT_ID":"2025-113E","EPOCH":"2026-01-22T04:07:38.173440","MEAN_MOTION":15.30196021,"ECCENTRICITY":7.679e-5,"INCLINATION":53.1592,"RA_OF_ASC_NODE":307.1644,"ARG_OF_PERICENTER":186.3537,"MEAN_ANOMALY":173.7454,"EPHEMERIS_TYPE":0,"CLASSIFICATION_TYPE":"U","NORAD_CAT_ID":64174,"ELEMENT_SET_NO":999,"REV_AT_EPOCH":3794,"BSTAR":0.0010635719,"MEAN_MOTION_DOT":0.00031269,"MEAN_MOTION_DDOT":0},{"OBJECT_NAME":"STARLINK-34231","OBJECT_ID":"2025-113F","EPOCH":"2026-01-22T18:36:54.847584","MEAN_MOTION":15.30240071,"ECCENTRICITY":0.00018854,"INCLINATION":53.1609,"RA_OF_ASC_NODE":304.5269,"ARG_OF_PERICENTER":113.2166,"MEAN_ANOMALY":246.9034,"EPHEMERIS_TYPE":0,"CLASSIFICATION_TYPE":"U","NORAD_CAT_ID":64175,"ELEMENT_SET_NO":999,"REV_AT_EPOCH":3803,"BSTAR":0.00198197,"MEAN_MOTION_DOT":0.00058881,"MEAN_MOTION_DDOT":0},{"OBJECT_NAME":"STARLINK-34191","OBJECT_ID":"2025-113G","EPOCH":"2026-01-22T18:53:27.296736","MEAN_MOTION":15.30237434,"ECCENTRICITY":0.0001752,"INCLINATION":53.1586,"RA_OF_ASC_NODE":303.8904,"ARG_OF_PERICENTER":94.1138,"MEAN_ANOMALY":266.0063,"EPHEMERIS_TYPE":0,"CLASSIFICATION_TYPE":"U","NORAD_CAT_ID":64176,"ELEMENT_SET_NO":999,"REV_AT_EPOCH":3804,"BSTAR":0.0014468353,"MEAN_MOTION_DOT":0.00042789,"MEAN_MOTION_DDOT":0},{"OBJECT_NAME":"STARLINK-34164","OBJECT_ID":"2025-113H","EPOCH":"2026-01-22T18:47:32.321472","MEAN_MOTION":15.3024113,"ECCENTRICITY":0.00015606,"INCLINATION":53.1594,"RA_OF_ASC_NODE":304.5763,"ARG_OF_PERICENTER":72.0469,"MEAN_ANOMALY":288.0702,"EPHEMERIS_TYPE":0,"CLASSIFICATION_TYPE":"U","NORAD_CAT_ID":64177,"ELEMENT_SET_NO":999,"REV_AT_EPOCH":3803,"BSTAR":0.0015531217,"MEAN_MOTION_DOT":0.00045984,"MEAN_MOTION_DDOT":0},{"OBJECT_NAME":"STARLINK-34227","OBJECT_ID":"2025-113J","EPOCH":"2026-01-22T18:18:41.302656","MEAN_MOTION":15.30260973,"ECCENTRICITY":0.00020255,"INCLINATION":53.1599,"RA_OF_ASC_NODE":304.452,"ARG_OF_PERICENTER":73.439,"MEAN_ANOMALY":286.6833,"EPHEMERIS_TYPE":0,"CLASSIFICATION_TYPE":"U","NORAD_CAT_ID":64178,"ELEMENT_SET_NO":999,"REV_AT_EPOCH":3803,"BSTAR":0.0017096835,"MEAN_MOTION_DOT":0.0005072,"MEAN_MOTION_DDOT":0},{"OBJECT_NAME":"STARLINK-34194","OBJECT_ID":"2025-113K","EPOCH":"2026-01-22T19:01:02.822592","MEAN_MOTION":15.30286721,"ECCENTRICITY":0.00011141,"INCLINATION":53.1586,"RA_OF_ASC_NODE":303.9333,"ARG_OF_PERICENTER":102.3093,"MEAN_ANOMALY":257.8032,"EPHEMERIS_TYPE":0,"CLASSIFICATION_TYPE":"U","NORAD_CAT_ID":64179,"ELEMENT_SET_NO":999,"REV_AT_EPOCH":3804,"BSTAR":0.003150988,"MEAN_MOTION_DOT":0.00094409,"MEAN_MOTION_DDOT":0},{"OBJECT_NAME":"STARLINK-34000","OBJECT_ID":"2025-113L","EPOCH":"2026-01-22T19:31:28.488288","MEAN_MOTION":15.30225208,"ECCENTRICITY":0.00010426,"INCLINATION":53.1579,"RA_OF_ASC_NODE":304.0556,"ARG_OF_PERICENTER":69.7732,"MEAN_ANOMALY":290.3381,"EPHEMERIS_TYPE":0,"CLASSIFICATION_TYPE":"U","NORAD_CAT_ID":64180,"ELEMENT_SET_NO":999,"REV_AT_EPOCH":3800,"BSTAR":0.0014021092,"MEAN_MOTION_DOT":0.00041431,"MEAN_MOTION_DDOT":0},{"OBJECT_NAME":"STARLINK-33917","OBJECT_ID":"2025-113M","EPOCH":"2026-01-22T18:35:24.616608","MEAN_MOTION":15.30213989,"ECCENTRICITY":9.894e-5,"INCLINATION":53.1611,"RA_OF_ASC_NODE":304.5198,"ARG_OF_PERICENTER":85.5839,"MEAN_ANOMALY":274.5275,"EPHEMERIS_TYPE":0,"CLASSIFICATION_TYPE":"U","NORAD_CAT_ID":64181,"ELEMENT_SET_NO":999,"REV_AT_EPOCH":3803,"BSTAR":0.0013684707,"MEAN_MOTION_DOT":0.00040409,"MEAN_MOTION_DDOT":0},{"OBJECT_NAME":"STARLINK-34131","OBJECT_ID":"2025-113N","EPOCH":"2026-01-22T11:59:25.811520","MEAN_MOTION":15.302182,"ECCENTRICITY":0.00013748,"INCLINATION":53.1592,"RA_OF_ASC_NODE":305.6491,"ARG_OF_PERICENTER":123.9508,"MEAN_ANOMALY":236.1624,"EPHEMERIS_TYPE":0,"CLASSIFICATION_TYPE":"U","NORAD_CAT_ID":64182,"ELEMENT_SET_NO":999,"REV_AT_EPOCH":3795,"BSTAR":0.0014185357,"MEAN_MOTION_DOT":0.00041915,"MEAN_MOTION_DDOT":0},{"OBJECT_NAME":"STARLINK-34188","OBJECT_ID":"2025-113P","EPOCH":"2026-01-22T18:38:25.107072","MEAN_MOTION":15.30240126,"ECCENTRICITY":0.00017106,"INCLINATION":53.1615,"RA_OF_ASC_NODE":304.5364,"ARG_OF_PERICENTER":127.2781,"MEAN_ANOMALY":232.8376,"EPHEMERIS_TYPE":0,"CLASSIFICATION_TYPE":"U","NORAD_CAT_ID":64183,"ELEMENT_SET_NO":999,"REV_AT_EPOCH":3803,"BSTAR":0.0012226469,"MEAN_MOTION_DOT":0.00036073,"MEAN_MOTION_DDOT":0},{"OBJECT_NAME":"STARLINK-34197","OBJECT_ID":"2025-113Q","EPOCH":"2026-01-22T12:26:46.379904","MEAN_MOTION":15.30230244,"ECCENTRICITY":0.00011778,"INCLINATION":53.1609,"RA_OF_ASC_NODE":305.7708,"ARG_OF_PERICENTER":80.1181,"MEAN_ANOMALY":279.9953,"EPHEMERIS_TYPE":0,"CLASSIFICATION_TYPE":"U","NORAD_CAT_ID":64184,"ELEMENT_SET_NO":999,"REV_AT_EPOCH":3799,"BSTAR":0.0015122537,"MEAN_MOTION_DOT":0.00044741,"MEAN_MOTION_DDOT":0},{"OBJECT_NAME":"STARLINK-34063","OBJECT_ID":"2025-113R","EPOCH":"2026-01-22T12:07:02.472672","MEAN_MOTION":15.30201431,"ECCENTRICITY":0.00013624,"INCLINATION":53.1605,"RA_OF_ASC_NODE":305.6826,"ARG_OF_PERICENTER":74.0545,"MEAN_ANOMALY":286.0606,"EPHEMERIS_TYPE":0,"CLASSIFICATION_TYPE":"U","NORAD_CAT_ID":64185,"ELEMENT_SET_NO":999,"REV_AT_EPOCH":3799,"BSTAR":0.0014430998,"MEAN_MOTION_DOT":0.00042629,"MEAN_MOTION_DDOT":0},{"OBJECT_NAME":"STARLINK-34200","OBJECT_ID":"2025-113S","EPOCH":"2026-01-22T19:22:20.744256","MEAN_MOTION":15.30207125,"ECCENTRICITY":8.59e-5,"INCLINATION":53.1553,"RA_OF_ASC_NODE":304.0169,"ARG_OF_PERICENTER":136.1709,"MEAN_ANOMALY":223.936,"EPHEMERIS_TYPE":0,"CLASSIFICATION_TYPE":"U","NORAD_CAT_ID":64186,"ELEMENT_SET_NO":999,"REV_AT_EPOCH":3804,"BSTAR":0.00097971709,"MEAN_MOTION_DOT":0.00028776,"MEAN_MOTION_DDOT":0},{"OBJECT_NAME":"STARLINK-33934","OBJECT_ID":"2025-113T","EPOCH":"2026-01-22T18:29:19.955904","MEAN_MOTION":15.30178843,"ECCENTRICITY":8.627e-5,"INCLINATION":53.162,"RA_OF_ASC_NODE":304.4956,"ARG_OF_PERICENTER":102.5391,"MEAN_ANOMALY":257.5707,"EPHEMERIS_TYPE":0,"CLASSIFICATION_TYPE":"U","NORAD_CAT_ID":64187,"ELEMENT_SET_NO":999,"REV_AT_EPOCH":3799,"BSTAR":0.0015261632,"MEAN_MOTION_DOT":0.00045086,"MEAN_MOTION_DDOT":0},{"OBJECT_NAME":"STARLINK-33929","OBJECT_ID":"2025-113U","EPOCH":"2026-01-22T18:26:15.672480","MEAN_MOTION":15.30236767,"ECCENTRICITY":0.0001283,"INCLINATION":53.16,"RA_OF_ASC_NODE":304.4801,"ARG_OF_PERICENTER":88.1411,"MEAN_ANOMALY":271.9737,"EPHEMERIS_TYPE":0,"CLASSIFICATION_TYPE":"U","NORAD_CAT_ID":64188,"ELEMENT_SET_NO":999,"REV_AT_EPOCH":3803,"BSTAR":0.001346491,"MEAN_MOTION_DOT":0.00039779,"MEAN_MOTION_DDOT":0},{"OBJECT_NAME":"STARLINK-33872","OBJECT_ID":"2025-113V","EPOCH":"2026-01-22T04:56:07.683072","MEAN_MOTION":15.30190916,"ECCENTRICITY":0.0001509,"INCLINATION":53.1586,"RA_OF_ASC_NODE":306.6584,"ARG_OF_PERICENTER":57.3163,"MEAN_ANOMALY":302.7983,"EPHEMERIS_TYPE":0,"CLASSIFICATION_TYPE":"U","NORAD_CAT_ID":64189,"ELEMENT_SET_NO":999,"REV_AT_EPOCH":3791,"BSTAR":0.0018005,"MEAN_MOTION_DOT":0.00053336,"MEAN_MOTION_DDOT":0}]
