STARLINK-34202          
1 64174U 25113E   26022.17196960  .00031269  00000+0  10636-2 0  9993
2 64174  53.1592 307.1644 0000767 186.3537 173.7454 15.30196021 37949
STARLINK-34231          
1 64175U 25113F   26022.77563481  .00058881  00000+0  19820-2 0  9999
2 64175  53.1609 304.5269 0001885 113.2166 246.9034 15.30240071 38035
STARLINK-34191          
1 64176U 25113G   26022.78712149  .00042789  00000+0  14468-2 0  9991
2 64176  53.1586 303.8904 0001752  94.1138 266.0063 15.30237434 38042
STARLINK-34164          
1 64177U 25113H   26022.78301298  .00045984  00000+0  15531-2 0  9993
2 64177  53.1594 304.5763 0001560  72.0469 288.0702 15.30241130 38033
STARLINK-34227          
1 64178U 25113J   26022.76297804  .00050720  00000+0  17097-2 0  9992
2 64178  53.1599 304.4520 0002025  73.4390 286.6833 15.30260973 38039
STARLINK-34194          
1 64179U 25113K   26022.79239378  .00094409  00000+0  31510-2 0  9996
2 64179  53.1586 303.9333 0001114 102.3093 257.8032 15.30286721 38043
STARLINK-34000          
1 64180U 25113L   26022.81352417  .00041431  00000+0  14021-2 0  9996
2 64180  53.1579 304.0556 0001042  69.7732 290.3381 15.30225208 38000
STARLINK-33917          
1 64181U 25113M   26022.77459047  .00040409  00000+0  13685-2 0  9998
2 64181  53.1611 304.5198 0000989  85.5839 274.5275 15.30213989 38030
STARLINK-34131          
1 64182U 25113N   26022.49960430  .00041915  00000+0  14185-2 0  9990
2 64182  53.1592 305.6491 0001374 123.9508 236.1624 15.30218200 37959
STARLINK-34188          
1 64183U 25113P   26022.77667948  .00036073  00000+0  12226-2 0  9993
2 64183  53.1615 304.5364 0001710 127.2781 232.8376 15.30240126 38036
STARLINK-34197          
1 64184U 25113Q   26022.51859236  .00044741  00000+0  15123-2 0  9999
2 64184  53.1609 305.7708 0001177  80.1181 279.9953 15.30230244 37990
STARLINK-34063          
1 64185U 25113R   26022.50488973  .00042629  00000+0  14431-2 0  9999
2 64185  53.1605 305.6826 0001362  74.0545 286.0606 15.30201431 37999
STARLINK-34200          
1 64186U 25113S   26022.80718454  .00028776  00000+0  97972-3 0  9992
2 64186  53.1553 304.0169 0000859 136.1709 223.9360 15.30207125 38047
STARLINK-33934          
1 64187U 25113T   26022.77036986  .00045086  00000+0  15262-2 0  9996
2 64187  53.1620 304.4956 0000862 102.5391 257.5707 15.30178843 37994
STARLINK-33929          
1 64188U 25113U   26022.76823695  .00039779  00000+0  13465-2 0  9992
2 64188  53.1600 304.4801 0001283  88.1411 271.9737 15.30236767 38031
STARLINK-33872          
1 64189U 25113V   26022.20564448  .00053336  00000+0  18005-2 0  9990
2 64189  53.1586 306.6584 0001509  57.3163 302.7983 15.30190916 37917
